start=new Date('2022-09-05T00:00:00.000Z').valueOf();
sats=[{"RCS_SIZE":"LARGE","REF_FRAME":"TEME","SEMIMAJOR_AXIS":"6925.326","PERIAPSIS":"546.081","CLASSIFICATION_TYPE":"U","MEAN_ELEMENT_THEORY":"SGP4","MEAN_MOTION":"15.06407204","ELEMENT_SET_NO":"999","MEAN_MOTION_DOT":"0.00001691","EPHEMERIS_TYPE":"0","REV_AT_EPOCH":"13647","TLE_LINE2":"2 45372  53.0533 162.5994 0001604  64.0054 296.1100 15.06407204136477","MEAN_MOTION_DDOT":"0.0000000000000","BSTAR":"0.00013234000000","OBJECT_TYPE":"PAYLOAD","TLE_LINE1":"1 45372U 20019N   22247.49750374  .00001691  00000-0  13234-3 0  9992","OBJECT_NAME":"STARLINK-1288","CENTER_NAME":"EARTH","DECAY_DATE":null,"NORAD_CAT_ID":"45372","OBJECT_ID":"2020-019N","APOAPSIS":"548.302","COUNTRY_CODE":"US","GP_ID":"211714312","FILE":"3557975","INCLINATION":"53.0533","ECCENTRICITY":"0.00016040","EPOCH":"2022-09-04T11:56:24.323136","LAUNCH_DATE":"2020-03-18","SITE":"AFETR","PERIOD":"95.592","ARG_OF_PERICENTER":"64.0054","RA_OF_ASC_NODE":"162.5994","TIME_SYSTEM":"UTC","MEAN_ANOMALY":"296.1100"},{"MEAN_ELEMENT_THEORY":"SGP4","PERIAPSIS":"545.983","CLASSIFICATION_TYPE":"U","SEMIMAJOR_AXIS":"6925.326","REF_FRAME":"TEME","RCS_SIZE":"LARGE","MEAN_MOTION_DDOT":"0.0000000000000","BSTAR":"0.00023945000000","REV_AT_EPOCH":"13642","TLE_LINE2":"2 45373  53.0541 164.1694 0001744  78.1302 281.9882 15.06407361136427","EPHEMERIS_TYPE":"0","ELEMENT_SET_NO":"999","MEAN_MOTION_DOT":"0.00003287","MEAN_MOTION":"15.06407361","NORAD_CAT_ID":"45373","DECAY_DATE":null,"OBJECT_TYPE":"PAYLOAD","TLE_LINE1":"1 45373U 20019P   22247.14734782  .00003287  00000-0  23945-3 0  9993","CENTER_NAME":"EARTH","OBJECT_NAME":"STARLINK-1295","FILE":"3557288","GP_ID":"211680664","COUNTRY_CODE":"US","APOAPSIS":"548.399","OBJECT_ID":"2020-019P","EPOCH":"2022-09-04T03:32:10.851648","ECCENTRICITY":"0.00017440","INCLINATION":"53.0541","PERIOD":"95.592","SITE":"AFETR","LAUNCH_DATE":"2020-03-18","ARG_OF_PERICENTER":"78.1302","TIME_SYSTEM":"UTC","MEAN_ANOMALY":"281.9882","RA_OF_ASC_NODE":"164.1694"},{"CENTER_NAME":"EARTH","TLE_LINE1":"1 45374U 20019Q   22247.47539052  .00002824  00000-0  20833-3 0  9992","OBJECT_TYPE":"PAYLOAD","OBJECT_NAME":"STARLINK-1300","NORAD_CAT_ID":"45374","DECAY_DATE":null,"APOAPSIS":"548.198","COUNTRY_CODE":"US","OBJECT_ID":"2020-019Q","GP_ID":"211690207","FILE":"3557771","RCS_SIZE":"LARGE","PERIAPSIS":"546.176","CLASSIFICATION_TYPE":"U","MEAN_ELEMENT_THEORY":"SGP4","REF_FRAME":"TEME","SEMIMAJOR_AXIS":"6925.322","ELEMENT_SET_NO":"999","MEAN_MOTION":"15.06408569","MEAN_MOTION_DOT":"0.00002824","TLE_LINE2":"2 45374  53.0552 162.7029 0001460  79.3384 280.7769 15.06408569136471","REV_AT_EPOCH":"13647","BSTAR":"0.00020833000000","MEAN_MOTION_DDOT":"0.0000000000000","EPHEMERIS_TYPE":"0","ARG_OF_PERICENTER":"79.3384","RA_OF_ASC_NODE":"162.7029","TIME_SYSTEM":"UTC","MEAN_ANOMALY":"280.7769","INCLINATION":"53.0552","ECCENTRICITY":"0.00014600","EPOCH":"2022-09-04T11:24:33.740928","LAUNCH_DATE":"2020-03-18","PERIOD":"95.592","SITE":"AFETR"},{"MEAN_MOTION":"15.06415409","MEAN_MOTION_DOT":"0.00003111","ELEMENT_SET_NO":"999","EPHEMERIS_TYPE":"0","TLE_LINE2":"2 45375  53.0557 162.6270 0001599  69.8234 290.2927 15.06415409136478","REV_AT_EPOCH":"13647","MEAN_MOTION_DDOT":"0.0000000000000","BSTAR":"0.00022755000000","RCS_SIZE":"LARGE","REF_FRAME":"TEME","SEMIMAJOR_AXIS":"6925.301","PERIAPSIS":"546.059","CLASSIFICATION_TYPE":"U","MEAN_ELEMENT_THEORY":"SGP4","OBJECT_ID":"2020-019R","APOAPSIS":"548.274","COUNTRY_CODE":"US","GP_ID":"211727483","FILE":"3558297","OBJECT_NAME":"STARLINK-1302","TLE_LINE1":"1 45375U 20019R   22247.49013096  .00003111  00000-0  22755-3 0  9995","OBJECT_TYPE":"PAYLOAD","CENTER_NAME":"EARTH","DECAY_DATE":null,"NORAD_CAT_ID":"45375","LAUNCH_DATE":"2020-03-18","SITE":"AFETR","PERIOD":"95.591","INCLINATION":"53.0557","ECCENTRICITY":"0.00015990","EPOCH":"2022-09-04T11:45:47.314944","RA_OF_ASC_NODE":"162.6270","MEAN_ANOMALY":"290.2927","TIME_SYSTEM":"UTC","ARG_OF_PERICENTER":"69.8234"},{"LAUNCH_DATE":"2020-03-18","PERIOD":"95.592","SITE":"AFETR","ECCENTRICITY":"0.00014970","EPOCH":"2022-09-04T04:14:37.961664","INCLINATION":"53.0539","RA_OF_ASC_NODE":"164.0394","TIME_SYSTEM":"UTC","MEAN_ANOMALY":"279.7556","ARG_OF_PERICENTER":"80.3602","MEAN_MOTION":"15.06407749","MEAN_MOTION_DOT":"0.00001938","ELEMENT_SET_NO":"999","MEAN_MOTION_DDOT":"0.0000000000000","BSTAR":"0.00014892000000","TLE_LINE2":"2 45376  53.0539 164.0394 0001497  80.3602 279.7556 15.06407749136429","REV_AT_EPOCH":"13642","EPHEMERIS_TYPE":"0","RCS_SIZE":"LARGE","MEAN_ELEMENT_THEORY":"SGP4","PERIAPSIS":"546.153","CLASSIFICATION_TYPE":"U","SEMIMAJOR_AXIS":"6925.325","REF_FRAME":"TEME","COUNTRY_CODE":"US","APOAPSIS":"548.227","OBJECT_ID":"2020-019S","FILE":"3557975","GP_ID":"211714812","OBJECT_TYPE":"PAYLOAD","TLE_LINE1":"1 45376U 20019S   22247.17682826  .00001938  00000-0  14892-3 0  9992","OBJECT_NAME":"STARLINK-1304","CENTER_NAME":"EARTH","NORAD_CAT_ID":"45376","DECAY_DATE":null},{"REV_AT_EPOCH":"13651","TLE_LINE2":"2 45377  53.0552 161.5329 0001442  79.2911 280.8240 15.06406847136516","MEAN_MOTION_DDOT":"0.0000000000000","BSTAR":"0.00020627000000","EPHEMERIS_TYPE":"0","MEAN_MOTION_DOT":"0.00002793","MEAN_MOTION":"15.06406847","ELEMENT_SET_NO":"999","CLASSIFICATION_TYPE":"U","PERIAPSIS":"546.194","MEAN_ELEMENT_THEORY":"SGP4","REF_FRAME":"TEME","SEMIMAJOR_AXIS":"6925.328","RCS_SIZE":"LARGE","GP_ID":"211749869","FILE":"3558394","APOAPSIS":"548.191","COUNTRY_CODE":"US","OBJECT_ID":"2020-019T","NORAD_CAT_ID":"45377","DECAY_DATE":null,"OBJECT_NAME":"STARLINK-1305","TLE_LINE1":"1 45377U 20019T   22247.73340720  .00002793  00000-0  20627-3 0  9992","OBJECT_TYPE":"PAYLOAD","CENTER_NAME":"EARTH","PERIOD":"95.592","SITE":"AFETR","LAUNCH_DATE":"2020-03-18","INCLINATION":"53.0552","EPOCH":"2022-09-04T17:36:06.382080","ECCENTRICITY":"0.00014420","TIME_SYSTEM":"UTC","MEAN_ANOMALY":"280.8240","RA_OF_ASC_NODE":"161.5329","ARG_OF_PERICENTER":"79.2911"},{"MEAN_MOTION":"15.06409233","ELEMENT_SET_NO":"999","MEAN_MOTION_DOT":"0.00002575","EPHEMERIS_TYPE":"0","MEAN_MOTION_DDOT":"0.0000000000000","BSTAR":"0.00019167000000","REV_AT_EPOCH":"13647","TLE_LINE2":"2 45378  53.0557 162.7755 0001580  67.9398 292.1759 15.06409233136472","RCS_SIZE":"LARGE","SEMIMAJOR_AXIS":"6925.320","REF_FRAME":"TEME","MEAN_ELEMENT_THEORY":"SGP4","CLASSIFICATION_TYPE":"U","PERIAPSIS":"546.091","OBJECT_ID":"2020-019U","COUNTRY_CODE":"US","APOAPSIS":"548.279","FILE":"3557849","GP_ID":"211692742","OBJECT_TYPE":"PAYLOAD","TLE_LINE1":"1 45378U 20019U   22247.45695939  .00002575  00000-0  19167-3 0  9992","CENTER_NAME":"EARTH","OBJECT_NAME":"STARLINK-1310","DECAY_DATE":null,"NORAD_CAT_ID":"45378","LAUNCH_DATE":"2020-03-18","SITE":"AFETR","PERIOD":"95.592","ECCENTRICITY":"0.00015800","EPOCH":"2022-09-04T10:58:01.291296","INCLINATION":"53.0557","RA_OF_ASC_NODE":"162.7755","TIME_SYSTEM":"UTC","MEAN_ANOMALY":"292.1759","ARG_OF_PERICENTER":"67.9398"},{"RA_OF_ASC_NODE":"163.9545","MEAN_ANOMALY":"287.9554","TIME_SYSTEM":"UTC","ARG_OF_PERICENTER":"72.1603","LAUNCH_DATE":"2020-03-18","PERIOD":"95.592","SITE":"AFETR","ECCENTRICITY":"0.00015440","EPOCH":"2022-09-04T04:41:10.845024","INCLINATION":"53.0542","COUNTRY_CODE":"US","APOAPSIS":"548.279","OBJECT_ID":"2020-019V","FILE":"3557975","GP_ID":"211716054","TLE_LINE1":"1 45379U 20019V   22247.19526441  .00001638  00000-0  12885-3 0  9994","OBJECT_TYPE":"PAYLOAD","OBJECT_NAME":"STARLINK-1319","CENTER_NAME":"EARTH","NORAD_CAT_ID":"45379","DECAY_DATE":null,"MEAN_MOTION_DOT":"0.00001638","MEAN_MOTION":"15.06401160","ELEMENT_SET_NO":"999","BSTAR":"0.00012885000000","MEAN_MOTION_DDOT":"0.0000000000000","REV_AT_EPOCH":"13643","TLE_LINE2":"2 45379  53.0542 163.9545 0001544  72.1603 287.9554 15.06401160136436","EPHEMERIS_TYPE":"0","RCS_SIZE":"LARGE","MEAN_ELEMENT_THEORY":"SGP4","CLASSIFICATION_TYPE":"U","PERIAPSIS":"546.141","SEMIMAJOR_AXIS":"6925.345","REF_FRAME":"TEME"},{"NORAD_CAT_ID":"45380","DECAY_DATE":null,"TLE_LINE1":"1 45380U 20019W   22247.12706889  .00002432  00000-0  18210-3 0  9996","OBJECT_TYPE":"PAYLOAD","OBJECT_NAME":"STARLINK-1207","CENTER_NAME":"EARTH","GP_ID":"211714313","FILE":"3557975","APOAPSIS":"548.171","COUNTRY_CODE":"US","OBJECT_ID":"2020-019W","PERIAPSIS":"546.235","CLASSIFICATION_TYPE":"U","MEAN_ELEMENT_THEORY":"SGP4","REF_FRAME":"TEME","SEMIMAJOR_AXIS":"6925.338","RCS_SIZE":"LARGE","TLE_LINE2":"2 45380  53.0554 144.2730 0001398  71.1580 288.9561 15.06403373136694","REV_AT_EPOCH":"13669","BSTAR":"0.00018210000000","MEAN_MOTION_DDOT":"0.0000000000000","EPHEMERIS_TYPE":"0","ELEMENT_SET_NO":"999","MEAN_MOTION_DOT":"0.00002432","MEAN_MOTION":"15.06403373","ARG_OF_PERICENTER":"71.1580","TIME_SYSTEM":"UTC","MEAN_ANOMALY":"288.9561","RA_OF_ASC_NODE":"144.2730","INCLINATION":"53.0554","ECCENTRICITY":"0.00013980","EPOCH":"2022-09-04T03:02:58.752096","PERIOD":"95.592","SITE":"AFETR","LAUNCH_DATE":"2020-03-18"},{"ARG_OF_PERICENTER":"100.8531","RA_OF_ASC_NODE":"141.5422","TIME_SYSTEM":"UTC","MEAN_ANOMALY":"259.2619","INCLINATION":"53.0544","ECCENTRICITY":"0.00014280","EPOCH":"2022-09-04T17:38:45.403008","LAUNCH_DATE":"2020-03-18","SITE":"AFETR","PERIOD":"95.591","TLE_LINE1":"1 45381U 20019X   22247.73524772  .00003292  00000-0  23973-3 0  9990","CENTER_NAME":"EARTH","OBJECT_TYPE":"PAYLOAD","OBJECT_NAME":"STARLINK-1258","DECAY_DATE":null,"NORAD_CAT_ID":"45381","OBJECT_ID":"2020-019X","APOAPSIS":"548.164","COUNTRY_CODE":"US","GP_ID":"211749369","FILE":"3558394","RCS_SIZE":"LARGE","REF_FRAME":"TEME","SEMIMAJOR_AXIS":"6925.310","PERIAPSIS":"546.186","CLASSIFICATION_TYPE":"U","MEAN_ELEMENT_THEORY":"SGP4","MEAN_MOTION_DOT":"0.00003292","MEAN_MOTION":"15.06412632","ELEMENT_SET_NO":"999","EPHEMERIS_TYPE":"0","TLE_LINE2":"2 45381  53.0544 141.5422 0001428 100.8531 259.2619 15.06412632136785","REV_AT_EPOCH":"13678","BSTAR":"0.00023973000000","MEAN_MOTION_DDOT":"0.0000000000000"}];
